sat20505
1 20505U 81053MM  20046.67193316  .00000305  00000-0  10940-3 0  9992
2 20505  83.1598 299.5284 0023049  20.3035 339.9063 14.30830292636738
